INTELSAT 21 (IS-21)     
1 38749U 12045A   26167.53082604 -.00000286  00000+0  00000+0 0  9998
2 38749   0.0077 310.7915 0001322 155.0226 292.0799  1.00270345 50513
INTELSAT 23 (IS-23)     
1 38867U 12057A   26167.48447596 -.00000286  00000+0  00000+0 0  9991
2 38867   0.0177 305.1566 0000206  51.2003  29.8210  1.00268351 49948
FM-6                    
1 39360U 13058A   26167.51924170  .00000000  00000+0  00000+0 0  9997
2 39360   0.0297  40.2071 0003239 153.2737 141.9075  1.00292473 46061
INTELSAT 30 (IS-30)     
1 40271U 14062A   26167.59477399 -.00000153  00000+0  00000+0 0  9990
2 40271   0.0247  45.2557 0001159 336.9496   1.7252  1.00271871  6788
DIRECTV 14              
1 40333U 14078B   26167.49072346 -.00000127  00000+0  00000+0 0  9999
2 40333   0.0113  18.2775 0000515 282.0583  41.8420  1.00269953 42032
DIRECTV 15              
1 40663U 15026A   26167.49072346 -.00000104  00000+0  00000+0 0  9994
2 40663   0.0163  19.7583 0000217 245.1602  73.6288  1.00270929 40451
SKY MEXICO-1            
1 40664U 15026B   26167.52669507 -.00000236  00000+0  00000+0 0  9996
2 40664   0.0172  10.3239 0002027  96.8202 268.4584  1.00270315 40446
INTELSAT 34 (IS-34)     
1 40874U 15039A   26167.48447596 -.00000287  00000+0  00000+0 0  9996
2 40874   0.0105 335.1020 0000560 344.7370  63.8407  1.00269039 39622
INTELSAT 31 (IS-31)     
1 41581U 16035A   26167.59477399 -.00000152  00000+0  00000+0 0  9996
2 41581   0.0179 271.7404 0001111 345.4107 126.7775  1.00269670 36679
INTELSAT 36 (IS-36)     
1 41747U 16053A   26167.55587281 -.00000026  00000+0  00000+0 0  9998
2 41747   0.0113   6.9408 0002200 325.4634 201.0285  1.00270683 35955
INTELSAT 32E (IS-32E)   
1 41945U 17007B   26167.53351272 -.00000271  00000+0  00000+0 0  9997
2 41945   0.0153 339.8589 0000760 330.3179 103.5119  1.00269133 34213
INTELSAT 35E (IS-35E)   
1 42818U 17041A   26167.43572176 -.00000240  00000+0  00000+0 0  9998
2 42818   0.0177 328.8419 0001594 109.9686 308.2476  1.00268727 32809
INTELSAT 37E (IS-37E)   
1 42950U 17059A   26167.39610890 -.00000142  00000+0  00000+0 0  9996
2 42950   0.0175  22.5598 0002357  84.1806 282.5399  1.00271714 32051
AZERSPACE 2 (IS-38)     
1 43632U 18074A   26167.55119279  .00000135  00000+0  00000+0 0  9996
2 43632   0.0009 358.9485 0001209  85.9791  63.4244  1.00270381 28445
HORIZONS-3E             
1 43633U 18074B   26167.57570723 -.00000033  00000+0  00000+0 0  9992
2 43633   0.0190 170.0891 0000877  99.8833  11.1235  1.00270487 28337
AT&T T-16               
1 44333U 19034A   26167.49072346 -.00000116  00000+0  00000+0 0  9998
2 44333   0.0206  59.6524 0000797 215.4965  65.4050  1.00268482 25629
INTELSAT 39 (IS-39)     
1 44476U 19049B   26166.48520424  .00000036  00000+0  00000+0 0  9995
2 44476   0.0009   5.7459 0000938 308.1942 186.4495  1.00270578 25119
GALAXY 30 (G-30)        
1 46114U 20056C   26167.51750836  .00000035  00000+0  00000+0 0  9992
2 46114   0.0157  22.2185 0002092  63.4766 240.3870  1.00271086 21288
GALAXY 33 (G-33)        
1 54026U 22128A   26167.51594834  .00000077  00000+0  00000+0 0  9995
2 54026   0.0106  18.3750 0001603  69.2524 229.9028  1.00271787 13737
GALAXY 34 (G-34)        
1 54027U 22128B   26166.51861343  .00000061  00000+0  00000+0 0  9990
2 54027   0.0129   6.0107 0001310  96.4818 219.0064  1.00271904 13894
GALAXY 31 (G-31)        
1 54243U 22153A   26167.51828836  .00000012  00000+0  00000+0 0  9995
2 54243   0.0149  39.8765 0001016  36.2552 254.2250  1.00270941  7127
GALAXY 32 (G-32)        
1 54244U 22153B   26165.95583885 -.00000197  00000+0  00000+0 0  9999
2 54244   0.0165 349.6788 0015287 254.3091 272.5395  1.00491998 13126
GALAXY 35 (G-35)        
1 54741U 22170A   26167.49504295  .00000000  00000+0  00000+0 0  9991
2 54741   0.0201  28.2868 0001849  58.7079 262.8757  1.00268559 12880
GALAXY 36 (G-36)        
1 54742U 22170B   26167.52461506 -.00000187  00000+0  00000+0 0  9990
2 54742   0.0181 256.2325 0002502 188.0884 280.3329  1.00270253 12768
GALAXY 37 (G-37)        
1 57493U 23112A   26166.94664088  .00000049  00000+0  00000+0 0  9994
2 57493   0.0257  63.8054 0001699  18.0301  36.1756  1.00271514 10536
